#dP2018  3 13  0  0  0.00000000      96 __u+U ITR00 FIT  IAC
## 1992 172800.00000000   900.00000000 58190 0.0000000000000
+   89   C01C02C03C04C05C06C07C08C09C10C11C12C13C14E01E02E03
+        E04E05E07E08E09E11E12E14E18E19E24E26E30G01G02G03G04
+        G05G06G07G08G09G10G11G12G13G14G15G16G17G18G19G20G21
+        G22G23G24G25G26G27G28G29G30G31G32J01J02J03R01R02R03
+        R04R05R06R07R08R09R10R11R13R14R15R16R17R18R19R20R21
+        R22R23R24R26  0  0  0  0  0  0  0  0  0  0  0  0  0
++        12 12 12 12 11  9  9  9  8  9  8  8  8  7  7  6  6
++         7  6  6  6  7  7  7  7  6  7  7  7  6  3  4  3  6
++         3  4  3  3  4  3  3  3  4  3  4  3  3  4  3  4  4
++         3  3  3  4  4  3  3  4  3  3  3 11  0 11  5  5  5
++         5  5  5  5  7  5  5  5  6  5  5  6  5  5  6  5  5
++         5  5  6  9  0  0  0  0  0  0  0  0  0  0  0  0  0
%c M  cc GPS ccc cccc cccc cccc cccc ccccc ccccc ccccc ccccc
%c cc cc ccc ccc cccc cccc cccc cccc ccccc ccccc ccccc ccccc
%f  0.0000000  0.000000000  0.00000000000  0.000000000000000
%f  0.0000000  0.000000000  0.00000000000  0.000000000000000
%i    0    0    0    0      0      0      0      0         0
%i    0    0    0    0      0      0      0      0         0
/* INFORMATION & ANALYSIS CENTER (IAC) OF MCC   (RAPID DATA)
/* S/V CLOCKS ARE ALIGNED TO GPS & GLONASS TIME RESPECTIVELY
/* USING THE BROADCAST EPHEMERIS                            
/* PCV:IGS14_1984 OL/AL:FES2004  NONE     YN ORB:CoN CLK:CoN
*  2018 03 13 21  0  0.00000000
PC01 -32328.450653  27053.401503  -1095.834310    479.452390
PC02   4396.203946  41927.362139    956.953245   -289.591190
PC03 -14768.681700  39509.355931   -358.877111   -390.473007
PC04 -39590.623964  14440.780074   -477.777626     29.965673
PC05  21938.954800  35999.768568   1298.046278   -172.810756
PC06  -5937.017954  32376.451148  26770.472345   -677.314792
PC07 -19307.464313  22324.407837 -30137.293408    934.421356
PC08 -21667.205874  35894.517465   3073.775412    227.135420
PC09   4435.546120  39068.089225  15800.948667   -318.644611
PC10  -4397.213989  25234.900910 -33407.086324    -80.758898
PC11 -15808.630980   4815.846380 -22413.296083   -426.484114
PC12 -10723.523290 -16799.045007 -19509.394857    393.051483
PC13  -9923.347482  36948.124235  17457.646314   -244.939458
PC14 -23092.387576  -4587.230308  14991.805029    287.940317
PE01   8489.987282 -15657.741199  23638.432167   -297.338869
PE02  -8447.301679  15665.834649 -23652.892898      7.399962
PE03   -107.780677  23773.843405  17631.194657     -9.236903
PE04 -14950.757843 -25528.585947   -859.814982      6.399954
PE05 -15141.104008   8087.844558  24115.362728    304.764614
PE07  21285.996657  12309.312621 -16470.237742     68.618937
PE08  15186.610323  25387.687683    900.439959   6624.742683
PE09 -21333.178680 -12203.946314  16509.232912   6849.757184
PE11 -17447.360906  -1412.603864 -23868.609962   1843.527102
PE12  -5015.910583 -20486.135059 -20747.588756   3704.929124
PE14   8046.244293 -19852.508843  10991.568287   6616.327379
PE18 -15483.601550  20297.282905 -19577.356832   6360.773053
PE19   1520.536360 -22723.058584 -18901.185533     20.290468
PE24 -28397.875747  -3985.325971   7279.925219   6814.924049
PE26  19624.746079 -17852.657411  13136.889952   6169.298555
PE30  14200.179182  13955.835783 -21919.683162   6005.245693
PG01   8593.265293 -19625.934910 -15641.553484    -33.968194
PG02 -21793.517491  14118.870372  -4303.083937    175.141123
PG03    257.476396 -16024.280990 -21203.099844     27.980241
PG04  24959.710155   8129.449652   4723.385923     44.178599
PG05 -19460.038226   5427.884070  17247.079933    -12.180058
PG06 -21448.330072   2891.972006 -15373.725815    412.720742
PG07  -7469.602358 -13478.237572  21816.140845    223.523674
PG08   5804.906261 -22609.488185  12590.828076    -94.253388
PG09  -8599.390923 -23903.480962   7697.209741    506.462407
PG10  24381.211471  10741.530999    376.500969    169.812514
PG11   6539.285779 -24662.966285  -8183.535040   -737.313287
PG12  -2451.857416  15018.000514 -21973.012220    345.519633
PG13 -12316.163481  15176.087163  17871.219179    -95.529063
PG14  15098.820779    952.094800 -21554.593719    -95.084342
PG15  -4348.689228  23111.227639  11755.318489   -356.441148
PG16  19529.772009  -2916.715628  17820.586362     30.336186
PG17 -13826.157209 -10827.479799 -19583.661041   -115.995457
PG18  15048.725194 -20158.593478  -8666.274204     -5.355624
PG19 -14896.302151  -2513.952223 -22114.332030   -451.067842
PG20   1134.555446  16532.690398  20646.135518    503.101906
PG21  10815.101887  11799.474053  22005.961556   -419.941603
PG22   8092.221303 -13830.898528 -20936.445177   -321.991135
PG23   -399.986879 -25965.967756  -4072.301846   -218.609790
PG24 -10862.595455  20586.503718 -12640.458598    -47.228352
PG25  11949.716425  17381.848389 -16459.380661   -552.974743
PG26  24755.018742   3109.936179   9293.052600   -219.008860
PG27  12655.083486 -10859.649346  20543.881533    369.421348
PG28 -21839.765655 -14698.279002   3942.071960    696.765387
PG29   4539.688368  25765.825111   4629.816663    482.840820
PG30 -15466.937295  -7381.910542  20328.561107     95.224366
PG31  22371.099653  -3607.601616 -14148.190626    135.658667
PG32  14957.522579  10580.108750 -19229.529909   -528.575149
PJ01 -26184.744442  23163.832734  28728.057651    -62.857361
PJ02 -35713.311218  19816.757304  -5950.809918 999999.999999
PJ03 -19772.454918  26253.904056 -21776.635517    -16.322306
PR01  11819.096362  -3047.495894 -22394.816349     23.308752
PR02  -3754.447430 -17386.897167 -18224.747279    299.660390
PR03 -15628.232050 -19915.902075  -2913.569310    126.607093
PR04 -18300.512775 -10430.282355  14390.237906    253.242016
PR05 -10668.402622   4567.927258  22707.974313   -264.035951
PR06   4652.110955  17856.770965  17614.832741    128.679038
PR07  15778.332601  19899.735994   2611.577836    -32.429817
PR08  18383.231292  11014.992993 -13786.170429     33.537228
PR09  -7636.082554  11839.459214 -21269.413628     42.346771
PR10  11420.770048   7883.108947 -21409.377945     20.314429
PR11  24050.448594   -423.437943  -8424.937633    -23.927594
PR13   6844.683362 -11706.678767  21582.012308     -8.379002
PR14 -11306.382263  -8141.862944  21374.890284     25.425778
PR15 -22473.248007  -1356.237037  11889.262641     -7.426968
PR16 -22349.258033   8760.607958  -8479.824920     87.739143
PR17  -2332.319941 -18241.207949 -17676.309504    116.372696
PR18 -10472.593072  -2127.724939 -23143.790199    188.081020
PR19 -13160.925823  15211.154186 -15684.168148    -47.197010
PR20  -7874.016994  24196.722898   2184.080810   -330.510352
PR21   2481.907310  17985.346854  17915.606397     25.442904
PR22  10982.746433    319.307606  23019.309628    -26.192786
PR23  12509.736357 -18131.242362  12853.363350    141.510146
PR24   7062.112941 -24324.321308  -2947.777515   -163.626961
PR26  -7548.377861  24288.319148   1828.969712      5.057154
EOF
